STARLINK-2648           
1 48679U 21044AT  26166.87123535  .00008386  00000+0  30215-3 0  9998
2 48679  53.1600  17.9574 0001381  77.1196 282.9959 15.29408547278846
STARLINK-2725           
1 48681U 21044AV  26167.17974801  .00001889  00000+0  72653-4 0  9999
2 48681  53.1616 337.4447 0001031 116.2335 243.8772 15.31689343279441
STARLINK-2743           
1 48682U 21044AW  26166.73418145 -.00000484  00000+0 -38388-5 0  9995
2 48682  53.1609 328.8993 0001057  82.5918 277.5203 15.31711374279526
STARLINK-2756           
1 48683U 21044AX  26167.18164638  .00002144  00000+0  80828-4 0  9999
2 48683  53.1610 327.0098 0001236  78.5807 281.5333 15.31702399279590
STARLINK-2741           
1 48684U 21044AY  26166.74659396  .00000938  00000+0  41980-4 0  9996
2 48684  53.1597 341.7513 0000915  58.1527 301.9563 15.31699675279354
STARLINK-2751           
1 48685U 21044AZ  26166.72953189  .00000944  00000+0  42182-4 0  9994
2 48685  53.1589 328.8279 0000904  73.7639 286.3462 15.31696717279534
STARLINK-2629           
1 48686U 21044BA  26167.17935492 -.00003241  00000+0 -92723-4 0  9993
2 48686  53.1615 337.1851 0001366  93.0668 267.0490 15.31693599279446
STARLINK-2627           
1 48687U 21044BB  26167.14432910  .00006816  00000+0  23116-3 0  9996
2 48687  53.1577 326.9654 0001051 107.2492 252.8624 15.31707175279587
STARLINK-2742           
1 48688U 21044BC  26167.16766802  .00000575  00000+0  30286-4 0  9992
2 48688  53.1607 327.0602 0000971  70.5356 289.5751 15.31693693279585
STARLINK-2740           
1 48690U 21044BE  26166.69497229 -.00000766  00000+0 -12932-4 0  9998
2 48690  53.1594 339.4028 0001311  85.9229 274.1922 15.31693335279370
STARLINK-2750           
1 48691U 21044BF  26167.16538064  .00002600  00000+0  95501-4 0  9995
2 48691  53.1599 337.1945 0001191  97.0788 263.0349 15.31702818279444
STARLINK-2752           
1 48692U 21044BG  26167.18399133  .00001579  00000+0  62631-4 0  9992
2 48692  53.1618 336.8961 0000876  95.9143 264.1959 15.31696315279456
STARLINK-2618           
1 48693U 21044BH  26167.17502057  .00003895  00000+0  13719-3 0  9998
2 48693  53.1602 337.0799 0001347  88.2675 271.8480 15.31703583279451
STARLINK-2748           
1 48694U 21044BJ  26166.77463687  .00004055  00000+0  14233-3 0  9990
2 48694  53.1586 342.1878 0001061 108.6901 251.4216 15.31703531279342
STARLINK-2616           
1 48695U 21044BK  26167.17570603  .00002043  00000+0  77590-4 0  9994
2 48695  53.1597 339.6333 0001378  96.0815 264.0343 15.31700542279426
STARLINK-2753           
1 48696U 21044BL  26166.83326194  .00001310  00000+0  53990-4 0  9995
2 48696  53.1616 352.0243 0001189  87.5748 272.5389 15.31690443279217
STARLINK-3005           
1 48881U 21059C   26167.06109892 -.00001778  00000+0 -13393-3 0  9999
2 48881  97.5709 292.1442 0000402 299.5886  60.5298 15.01268422273569
STARLINK-3090           
1 49132U 21082C   26167.04304498 -.00000600  00000+0 -42523-4 0  9993
2 49132  70.0009  46.3483 0002499 266.9137  93.1736 14.98329553260717
STARLINK-3077           
1 49133U 21082D   26166.99296765  .00002301  00000+0  20055-3 0  9997
2 49133  69.9998  46.5989 0002966 261.6126  98.4697 14.98336446260706
STARLINK-3078           
1 49134U 21082E   26166.98881370 -.00000286  00000+0 -16202-4 0  9991
2 49134  70.0003  46.6131 0002827 266.2256  93.8580 14.98324591261909
STARLINK-3073           
1 49135U 21082F   26166.95914020 -.00000488  00000+0 -33099-4 0  9995
2 49135  70.0001   6.6663 0002894 267.8109  92.2719 14.98328125261692
STARLINK-3055           
1 49137U 21082H   26166.93746589 -.00000251  00000+0 -13585-4 0  9994
2 49137  69.9999  27.8381 0002909 268.7752  91.3074 14.97518448261164
STARLINK-3058           
1 49138U 21082J   26166.98463839 -.00000335  00000+0 -20316-4 0  9997
2 49138  70.0001  46.6271 0002904 266.9886  93.0941 14.98328551260708
STARLINK-3057           
1 49139U 21082K   26167.16668980 -.00024973  00000+0 -15915-2 0  9994
2 49139  69.9983   5.7148 0003012 273.5581 210.8849 15.08624118  5805
STARLINK-3093           
1 49141U 21082M   26167.04722955  .00000057  00000+0  12601-4 0  9993
2 49141  70.0004  46.4737 0002669 267.0822  93.0032 14.98324717261915
STARLINK-3109           
1 49143U 21082P   26166.93341308 -.00000008  00000+0  72189-5 0  9996
2 49143  69.9997  27.8524 0002999 269.8162  90.2653 14.97519577262272
STARLINK-3100           
1 49144U 21082Q   26167.10564027  .00000177  00000+0  22598-4 0  9996
2 49144  70.0000  46.3065 0002989 270.2249  89.8567 14.98326641260723
STARLINK-3119           
1 49145U 21082R   26166.98835793  .00000131  00000+0  18814-4 0  9999
2 49145  69.9990   6.5964 0003257 271.6509  88.4277 14.98322836261689
STARLINK-3116           
1 49146U 21082S   26166.99603968 -.00000496  00000+0 -34594-4 0  9997
2 49146  69.9995  27.6981 0002607 268.4195  91.6665 14.97519094262323
STARLINK-3071           
1 49147U 21082T   26166.93410403 -.00000228  00000+0 -11353-4 0  9993
2 49147  69.9997   6.7507 0002921 268.1499  91.9325 14.98327953261687
