OBJECT_NAME,OBJECT_ID,EPOCH,MEAN_MOTION,ECCENTRICITY,INCLINATION,RA_OF_ASC_NODE,ARG_OF_PERICENTER,MEAN_ANOMALY,EPHEMERIS_TYPE,CLASSIFICATION_TYPE,NORAD_CAT_ID,ELEMENT_SET_NO,REV_AT_EPOCH,BSTAR,MEAN_MOTION_DOT,MEAN_MOTION_DDOT
STARLINK-2648,2021-044AT,2026-06-15T20:54:34.734240,15.29408547,.00013816,53.1600,17.9574,77.1196,282.9959,0,U,48679,999,27884,.3021468E-3,.8386E-4,0
STARLINK-2725,2021-044AV,2026-06-16T04:18:50.228064,15.31689343,.0001031,53.1616,337.4447,116.2335,243.8772,0,U,48681,999,27944,.72653E-4,.1889E-4,0
STARLINK-2743,2021-044AW,2026-06-15T17:37:13.277280,15.31711374,.00010572,53.1609,328.8993,82.5918,277.5203,0,U,48682,999,27952,-.3838774E-5,-.484E-5,0
STARLINK-2756,2021-044AX,2026-06-16T04:21:34.247232,15.31702399,.0001236,53.1610,327.0098,78.5807,281.5333,0,U,48683,999,27959,.80828E-4,.2144E-4,0
STARLINK-2741,2021-044AY,2026-06-15T17:55:05.718144,15.31699675,.00009154,53.1597,341.7513,58.1527,301.9563,0,U,48684,999,27935,.41979545E-4,.938E-5,0
STARLINK-2751,2021-044AZ,2026-06-15T17:30:31.555296,15.31696717,.00009047,53.1589,328.8279,73.7639,286.3462,0,U,48685,999,27953,.42181579E-4,.944E-5,0
STARLINK-2629,2021-044BA,2026-06-16T04:18:16.265088,15.31693599,.0001366,53.1615,337.1851,93.0668,267.0490,0,U,48686,999,27944,-.92723E-4,-.3241E-4,0
STARLINK-2627,2021-044BB,2026-06-16T03:27:50.034240,15.31707175,.0001051,53.1577,326.9654,107.2492,252.8624,0,U,48687,999,27958,.23116E-3,.6816E-4,0
STARLINK-2742,2021-044BC,2026-06-16T04:01:26.516928,15.31693693,.0000971,53.1607,327.0602,70.5356,289.5751,0,U,48688,999,27958,.30286E-4,.575E-5,0
STARLINK-2740,2021-044BE,2026-06-15T16:40:45.605856,15.31693335,.00013113,53.1594,339.4028,85.9229,274.1922,0,U,48690,999,27937,-.12932098E-4,-.766E-5,0
STARLINK-2750,2021-044BF,2026-06-16T03:58:08.887296,15.31702818,.0001191,53.1599,337.1945,97.0788,263.0349,0,U,48691,999,27944,.95501E-4,.26E-4,0
STARLINK-2752,2021-044BG,2026-06-16T04:24:56.850912,15.31696315,.0000876,53.1618,336.8961,95.9143,264.1959,0,U,48692,999,27945,.62631E-4,.1579E-4,0
STARLINK-2618,2021-044BH,2026-06-16T04:12:01.777248,15.31703583,.0001347,53.1602,337.0799,88.2675,271.8480,0,U,48693,999,27945,.13719E-3,.3895E-4,0
STARLINK-2748,2021-044BJ,2026-06-15T18:35:28.625568,15.31703531,.00010617,53.1586,342.1878,108.6901,251.4216,0,U,48694,999,27934,.14233418E-3,.4055E-4,0
STARLINK-2616,2021-044BK,2026-06-16T04:13:01.000992,15.31700542,.0001378,53.1597,339.6333,96.0815,264.0343,0,U,48695,999,27942,.7759E-4,.2043E-4,0
STARLINK-2753,2021-044BL,2026-06-15T19:59:53.831616,15.31690443,.00011891,53.1616,352.0243,87.5748,272.5389,0,U,48696,999,27921,.53990158E-4,.131E-4,0
STARLINK-3005,2021-059C,2026-06-16T01:27:58.946688,15.01268422,.0000402,97.5709,292.1442,299.5886,60.5298,0,U,48881,999,27356,-.13393E-3,-.1778E-4,0
STARLINK-3090,2021-082C,2026-06-16T01:01:59.086272,14.98329553,.0002499,70.0009,46.3483,266.9137,93.1736,0,U,49132,999,26071,-.42523E-4,-.6E-5,0
STARLINK-3077,2021-082D,2026-06-15T23:49:52.404960,14.98336446,.0002966,69.9998,46.5989,261.6126,98.4697,0,U,49133,999,26070,.20055E-3,.2301E-4,0
STARLINK-3078,2021-082E,2026-06-15T23:43:53.503680,14.98324591,.0002827,70.0003,46.6131,266.2256,93.8580,0,U,49134,999,26190,-.16202E-4,-.286E-5,0
STARLINK-3073,2021-082F,2026-06-15T23:01:09.713280,14.98328125,.0002894,70.0001,6.6663,267.8109,92.2719,0,U,49135,999,26169,-.33099E-4,-.488E-5,0
STARLINK-3055,2021-082H,2026-06-15T22:29:57.052896,14.97518448,.0002909,69.9999,27.8381,268.7752,91.3074,0,U,49137,999,26116,-.13585E-4,-.251E-5,0
STARLINK-3058,2021-082J,2026-06-15T23:37:52.756896,14.98328551,.0002904,70.0001,46.6271,266.9886,93.0941,0,U,49138,999,26070,-.20316E-4,-.335E-5,0
STARLINK-3057,2021-082K,2026-06-16T04:00:01.998720,15.08624118,.0003012,69.9983,5.7148,273.5581,210.8849,0,U,49139,999,580,-.15915E-2,-.24973E-3,0
STARLINK-3093,2021-082M,2026-06-16T01:08:00.633120,14.98324717,.0002669,70.0004,46.4737,267.0822,93.0032,0,U,49141,999,26191,.12601E-4,.57E-6,0
STARLINK-3109,2021-082P,2026-06-15T22:24:06.890112,14.97519577,.0002999,69.9997,27.8524,269.8162,90.2653,0,U,49143,999,26227,.72189E-5,-.8E-7,0
STARLINK-3100,2021-082Q,2026-06-16T02:32:07.319328,14.98326641,.0002989,70.0000,46.3065,270.2249,89.8567,0,U,49144,999,26072,.22598E-4,.177E-5,0
STARLINK-3119,2021-082R,2026-06-15T23:43:14.125152,14.98322836,.0003257,69.9990,6.5964,271.6509,88.4277,0,U,49145,999,26168,.18814E-4,.131E-5,0
STARLINK-3116,2021-082S,2026-06-15T23:54:17.828352,14.97519094,.0002607,69.9995,27.6981,268.4195,91.6665,0,U,49146,999,26232,-.34594E-4,-.496E-5,0
STARLINK-3071,2021-082T,2026-06-15T22:25:06.588192,14.98327953,.0002921,69.9997,6.7507,268.1499,91.9325,0,U,49147,999,26168,-.11353E-4,-.228E-5,0
